{
  "id": 840591065,
  "type": "Feature",
  "properties": {
    "addr:city":"Marysville",
    "addr:full":"1207 Broadway Marysville, Ks 66508-1845",
    "addr:house_number":"1207",
    "addr:housenumber":"1207",
    "addr:phone":"+1 785-562-5012",
    "addr:postcode":"66508-1845",
    "addr:road":"Broadway",
    "addr:state":"KS",
    "addr:street":"Broadway St",
    "edtf:cessation":"uuuu",
    "edtf:inception":"uuuu",
    "geom:area":0.0,
    "geom:bbox":"-96.64308,39.84159,-96.64308,39.84159",
    "geom:latitude":39.84159,
    "geom:longitude":-96.64308,
    "iso:country":"US",
    "mz:hierarchy_label":1,
    "mz:is_current":1,
    "sg:address":"1207 Broadway St",
    "sg:city":"Marysville",
    "sg:classifiers":[
        {
            "category":"Museum",
            "subcategory":"",
            "type":"Entertainment"
        }
    ],
    "sg:owner":"simplegeo",
    "sg:phone":"+1 785 562 5012",
    "sg:postcode":"66508",
    "sg:province":"KS",
    "src:geom":"mudf",
    "wof:airports":[],
    "wof:belongsto":[],
    "wof:breaches":[],
    "wof:concordances":{
        "mudf:mid":8402000154,
        "sg:id":"SG_0fOrGulMwJIgaaGfS48R08_39.841612_-96.641993@1294126544"
    },
    "wof:country":"US",
    "wof:created":1464043444,
    "wof:geomhash":"419d2bf21ea0ceb3d54857a1522b9541",
    "wof:hierarchy":[],
    "wof:id":840591065,
    "wof:lastmodified":1534186592,
    "wof:name":"Marshall County Historical Society",
    "wof:parent_id":-1,
    "wof:placetype":"venue",
    "wof:repo":"whosonfirst-data-venue-us-ks",
    "wof:superseded_by":[],
    "wof:supersedes":[],
    "wof:tags":[]
},
  "bbox": [
    -96.64308,
    39.84159,
    -96.64308,
    39.84159
],
  "geometry": {"coordinates":[-96.64308,39.84159],"type":"Point"}
}